#dP2023  7 24  0  0  0.00000000      96 __u+U IGS14 FIT  IAC
## 2272  86400.00000000   900.00000000 60149 0.0000000000000
+  119   C06C07C08C09C10C11C12C13C14C16C19C20C21C22C23C24C25
+        C26C27C28C29C30C32C33C34C35C36C37C38C39C40C41C42C43
+        C44C45C46E02E03E04E05E07E08E09E10E11E12E13E14E15E18
+        E19E21E24E25E26E27E30E31E33E34E36G01G02G03G04G05G06
+        G07G08G09G10G11G12G13G14G15G16G17G18G19G20G21G22G23
+        G24G25G26G27G28G29G30G31G32J02J03J04R01R02R03R04R05
+        R07R08R09R11R12R13R14R15R16R17R18R19R20R21R22R24R25
++         7  7  7  7  8  7  7  7  7  7  6  6  6  6  6  6  6
++         6  6  6  6  6  6  6  6  6  7  7  6  6  6  6  6  6
++         6  6  7  4  4  4  5  4  5  5  4  5  4  4  5  4  4
++         4  5  4  5  4  4  4  4  4  5  5  4  3  3  4  4  3
++         4  4  5  3  4  3  4  3  4  4  3  4  3  4  3  4  3
++         4  3  4  4  3  4  4  3  4  9  9 10  8  7  6  6  6
++         7  7  7  7  7  8  7  7  7  7  7  8  8  7  7  7  8
%c M  cc GPS ccc cccc cccc cccc cccc ccccc ccccc ccccc ccccc
%c cc cc ccc ccc cccc cccc cccc cccc ccccc ccccc ccccc ccccc
%f  1.2500000  1.025000000  0.00000000000  0.000000000000000
%f  0.0000000  0.000000000  0.00000000000  0.000000000000000
%i    0    0    0    0      0      0      0      0         0
%i    0    0    0    0      0      0      0      0         0
/* INFORMATION & ANALYSIS CENTER (IAC)            FINAL DATA
/* S/V CLOCKS ARE ALIGNED TO GNSS TIME                      
/* G:C1WC2W R:C1PC2P E:C1XC5X C:C2IC6I J:C1CC2S             
/* PCV:IGS20_2247 OL/AL:FES2004  NONE     YN ORB:CoN CLK:CoN
*  2023 07 24  0 15  0.00000000
PC06  -2771.716989  29147.261437 -30216.001483    679.360571
PC07 -15173.541730  29388.816857  26110.956993   -369.103021
PC08 -11442.563919  40686.708410    705.289459    417.332579
PC09   5914.736272  33598.135784 -23972.407377    379.891017
PC10  -8052.315294  29510.888767  29145.168483   -123.563321
PC11 -24427.970700  -9140.524952   9947.573542    741.963962
PC12 -18417.573490 -19247.634882  -8251.171365    812.291856
PC13  -6654.465760  41423.477675  -5333.198521    321.155656
PC14 -24381.916531   2164.800827  13354.812161    107.587820
PC16  -3259.321996  28117.924351 -30886.724259     -6.085064
PC19  25824.673322  -9485.664650  -4743.029936   -945.322556
PC20  20260.178861   4027.199220 -18773.320683    414.139269
PC21  -1848.727750 -16281.568580  22602.063810   -938.850424
PC22  16869.403553 -18227.909828  12748.986781   -382.890118
PC23  -9773.284428  23372.509674 -11692.650518   -931.770038
PC24 -13110.399270 -15295.520528 -19305.486415    206.004445
PC25 -15925.121177   7127.677795 -21788.169057    174.307961
PC26  -3662.361024 -26923.232090  -6295.483085   -153.039182
PC27  11524.120302  20391.382083  15142.951225    174.006799
PC28  -6015.421584  15025.561476  22734.449133    129.831319
PC29  22178.096266   -298.140180 -16946.284504    151.310731
PC30  23912.222409  14364.990590   -378.473799     -2.571323
PC32   1911.119717  16291.779634 -22563.331269   -536.799657
PC33 -25756.621551   9539.136791   4870.833563   -920.099246
PC34 -24319.302996 -13598.502011   1681.369390    221.428202
PC35   5877.558326 -15111.817864 -22729.142781    582.451120
PC36  16186.179377  -5831.597822  21999.829374   -313.442352
PC37   2393.220414  27293.097984   5383.020828   -796.866429
PC38 -15061.336887  38508.827629   8686.589457     93.537141
PC39  -8489.088410  23999.628459 -33519.920677     -3.961895
PC40 -22614.779297  23283.807584  26769.905428    -30.441038
PC41 -17363.703162  18145.001942 -12104.723666   -898.144620
PC42 -19221.623471  -5192.259421  19579.239503   -601.763991
PC43 -22651.324425   -421.070245  16291.324697     32.068063
PC44 -12049.454767 -20051.288039 -15250.493272    177.992184
PC45   9476.919546 -23669.814725  11326.442934     -5.468901
PC46  13518.291164  13968.318760  20040.488722    -71.149501
PE02  17289.679680 -24018.521971     28.997858     51.506239
PE03  15222.302145 -13656.663436  21403.867166    -38.958144
PE04   6886.757841  16993.009220 -23231.029586   -173.413869
PE05  28665.583256  -2292.946894   7033.469669      2.389809
PE07 -25067.338393 -10546.046342  11676.804291    -62.147804
PE08  -6447.587198 -16882.928756  23441.156564   -119.127932
PE09  25013.880917  10517.795111 -11844.470135    -95.210883
PE10  14326.609962  25689.830717  -3370.742657   -550.757347
PE11  18262.286027  19166.215715 -13250.202853   2559.423098
PE12   8418.797494  27708.986577   6084.894523   -630.014262
PE13 -18072.028063 -19754.195541  12620.208895    -19.345085
PE14  31151.378359   3381.218091  -2594.525051    290.845813
PE15  -8217.071034 -27689.804774  -6479.064098    -39.465837
PE18 -23128.110535  -8163.557524  -4237.079741    330.847157
PE19 -17752.018417  12346.653735 -20205.301276  -2009.244227
PE21 -21890.257499  11030.351732 -16586.559814   -542.477981
PE24  13661.928710   9805.342842  24351.086195   -226.196798
PE25  21869.859562 -10688.362892  16851.867983   -608.761130
PE26 -17108.329812    503.923690  24144.931268    171.845286
PE27 -14108.877479  -9080.849481 -24377.667017   -106.708392
PE30   2356.561010 -23836.994237 -17388.175766   -360.072729
PE31  -1885.705569  23627.369970  17741.685895     -1.054571
PE33  -6759.768167  18811.168399  21829.629141     -2.300028
PE34   6284.002250 -19327.312533 -21528.115606    -57.696740
PE36  17218.444492    359.004486 -24079.061427    -90.415959
PG01 -16163.582742  -4267.590389  20385.621428    171.582923
PG02 -18402.380099  -9369.336821  17292.937675   -573.066829
PG03 -19376.644411   7516.667135  16326.256267   -219.666808
PG04 -25931.046879    173.144158  -6013.147849    104.467385
PG05  12667.407808   8347.596433 -21983.944098   -136.052195
PG06   4194.005604  24767.278888   8540.504949    574.905471
PG07 -10189.239327  13009.994572 -20222.753993    116.392526
PG08 -25380.077559  -6385.113987  -5711.653660   -133.704522
PG09 -21027.100166   8005.877426 -14223.431706   -104.755552
PG10   9216.796584 -22923.482530   9484.949259    -46.376033
PG11  12767.633613  22512.367918  -6060.010643   -289.035349
PG12  19004.764000  -2855.784501  18022.990616   -404.339092
PG13  20017.597387  13472.098853 -11524.164888    551.033811
PG14 -12251.619504  22603.350909   6338.480248    131.790868
PG15  25973.469118   3531.044699  -5527.858144     60.856594
PG16  -8706.366954 -12904.790307 -21778.382998   -477.206021
PG17  -5530.939047  14283.011806  22137.314500    721.543384
PG18   8200.460389 -15614.157493 -19806.860354   -356.700010
PG19   3482.917423  15548.467167  21091.919110    347.963761
PG20   6065.646751  17735.244909 -18852.697851    421.056274
PG21 -18741.008664 -12509.708226  15262.884417    151.780826
PG22  -7003.611887 -16003.961974  20504.380532    517.069513
PG23  16763.234541 -20277.413028  -2918.393562     46.629797
PG24  18587.869444   7857.919224  17107.710045   -267.478069
PG25  19288.199899 -15429.416631   9089.434841    457.947063
PG26   -609.058448 -21033.466645 -16118.851892    235.503997
PG27 -17736.699422 -12866.321061 -15546.752170     -8.943380
PG28  -3560.305614 -24288.493828  10125.234056     81.211401
PG29  22284.011136  -5008.869725 -13694.845907   -606.255996
PG30  -3438.333955  21177.299459 -15367.733395   -502.039344
PG31 -10356.153221 -24193.602785   -878.679456   -220.598742
PG32   1275.100691 -15262.363016  21884.660043   -527.085053
PJ02 -28612.206724  30628.458101    205.090442     -1.696502
PJ03 -25146.446601  23508.851183  29446.483805     -0.301920
PJ04 -32464.165498  25163.961442  -4165.883011     97.435241
PR01  22259.083183   -944.875433 -12435.941045     62.011976
PR02  23047.750149  -9290.980886   5650.489312    -22.595655
PR03  10163.506738 -12656.981755  19699.684319     82.038208
PR04  -7801.055557  -8734.796145  22688.859637    195.992819
PR05 -21725.908232   -325.211916  13390.814045    116.239613
PR07  -9489.891329  12599.530067 -20024.552452     60.854044
PR08   8052.156055   8696.328188 -22526.707759    -71.783124
PR09 -11759.011770  14960.277601 -16920.931266    132.827781
PR11   2076.022878  21143.905064  14117.673705   -112.359044
PR12  10397.784851   3958.703613  22984.936361     29.419117
PR13  11959.963995 -13098.241890  18325.162118    -37.404574
PR14   6360.491514 -24675.237782   1422.908034     24.998869
PR15  -2611.182274 -20413.634027 -15051.565764     87.600056
PR16 -10170.474794  -4214.274056 -22995.915306     16.991841
PR17  -1971.506305 -14918.276190 -20580.082732      2.490339
PR18 -14530.803916 -19378.395786  -8060.048879     93.111946
PR19 -19104.752989 -15268.406940   7225.424509   -240.895789
PR20 -12868.387276    698.672014  22022.051867    -97.099805
PR21   3019.289113  15564.357934  19988.025770    -24.972974
PR22  14307.247570  19884.531463   7119.857990    100.493395
PR24  12738.671954  -2011.641139 -22000.896900    -17.724984
PR25   1083.346582  15184.054090  20476.499463     45.982842
EOF
